[
   {
      "name": "STARLINK-1727",
      "line1": "1 46335U 20062L   21092.65014768  .00000378  00000-0  44286-4 0  9998",
      "line2": "2 46335  53.0584 186.2850 0001635 154.0850 206.0221 15.06397255 32704",
      "bstar": 4.4286,
      "inc": 53.0584,
      "raan": 186.285,
      "ecc": 0.0001635,
      "argp": 154.085,
      "nu": 206.0221,
      "mmo": 15.06397255,
      "a": 6925.35697
   },
   {
      "name": "STARLINK-1738",
      "line1": "1 46336U 20062M   21092.90632623 -.00000774  00000-0 -33071-4 0  9995",
      "line2": "2 46336  53.0564 165.1422 0000929 126.4980 233.6095 15.06389638 33012",
      "bstar": -3.3071,
      "inc": 53.0564,
      "raan": 165.1422,
      "ecc": 9.29e-05,
      "argp": 126.498,
      "nu": 233.6095,
      "mmo": 15.06389638,
      "a": 6925.38032
   },
   {
      "name": "STARLINK-1750",
      "line1": "1 46337U 20062N   21092.58933684  .00000925  00000-0  80996-4 0  9995",
      "line2": "2 46337  53.0571 166.5628 0001051 122.2364 237.8727 15.06391292 32972",
      "bstar": 8.0996,
      "inc": 53.0571,
      "raan": 166.5628,
      "ecc": 0.0001051,
      "argp": 122.2364,
      "nu": 237.8727,
      "mmo": 15.06391292,
      "a": 6925.37525
   },
   {
      "name": "STARLINK-1752",
      "line1": "1 46338U 20062P   21092.77178720 -.00000764  00000-0 -32405-4 0  9994",
      "line2": "2 46338  53.0574 185.7447 0001354 138.1166 221.9926 15.06393292 32719",
      "bstar": -3.2405,
      "inc": 53.0574,
      "raan": 185.7447,
      "ecc": 0.0001354,
      "argp": 138.1166,
      "nu": 221.9926,
      "mmo": 15.06393292,
      "a": 6925.36912
   },
   {
      "name": "STARLINK-1757",
      "line1": "1 46339U 20062Q   21092.90746727  .00003596  00000-0  31182-3 0  9992",
      "line2": "2 46339  53.0594 165.1690 0005994 174.2914 185.8141 14.99400963 33027",
      "bstar": 31.182,
      "inc": 53.0594,
      "raan": 165.169,
      "ecc": 0.0005994,
      "argp": 174.2914,
      "nu": 185.8141,
      "mmo": 14.99400963,
      "a": 6946.883
   },
   {
      "name": "STARLINK-1759",
      "line1": "1 46340U 20062R   21092.67870190 -.00000885  00000-0 -40548-4 0  9997",
      "line2": "2 46340  53.0566 186.1625 0001263 123.4407 236.6703 15.06394497 32703",
      "bstar": -4.0548,
      "inc": 53.0566,
      "raan": 186.1625,
      "ecc": 0.0001263,
      "argp": 123.4407,
      "nu": 236.6703,
      "mmo": 15.06394497,
      "a": 6925.36542
   },
   {
      "name": "STARLINK-1760",
      "line1": "1 46341U 20062S   21092.88420718 -.00001077  00000-0 -53436-4 0  9992",
      "line2": "2 46341  53.0604 165.2273 0001108 135.2638 224.8440 15.06397833 33029",
      "bstar": -5.3436,
      "inc": 53.0604,
      "raan": 165.2273,
      "ecc": 0.0001108,
      "argp": 135.2638,
      "nu": 224.844,
      "mmo": 15.06397833,
      "a": 6925.3552
   },
   {
      "name": "STARLINK-1762",
      "line1": "1 46342U 20062T   21092.73123610  .00000900  00000-0  79318-4 0  9997",
      "line2": "2 46342  53.0569 185.9153 0001705 143.5919 216.5186 15.06399715 32714",
      "bstar": 7.9318,
      "inc": 53.0569,
      "raan": 185.9153,
      "ecc": 0.0001705,
      "argp": 143.5919,
      "nu": 216.5186,
      "mmo": 15.06399715,
      "a": 6925.34943
   },
   {
      "name": "STARLINK-1764",
      "line1": "1 46343U 20062U   21092.59302042  .00000860  00000-0  76616-4 0  9993",
      "line2": "2 46343  53.0564 166.5438 0000961 110.7859 249.3233 15.06395336 32973",
      "bstar": 7.6616,
      "inc": 53.0564,
      "raan": 166.5438,
      "ecc": 9.61e-05,
      "argp": 110.7859,
      "nu": 249.3233,
      "mmo": 15.06395336,
      "a": 6925.36285
   },
   {
      "name": "STARLINK-1765",
      "line1": "1 46344U 20062V   21092.61144149  .00000539  00000-0  55039-4 0  9998",
      "line2": "2 46344  53.0574 166.4652 0001058 119.5083 240.6012 15.06402913 32975",
      "bstar": 5.5039,
      "inc": 53.0574,
      "raan": 166.4652,
      "ecc": 0.0001058,
      "argp": 119.5083,
      "nu": 240.6012,
      "mmo": 15.06402913,
      "a": 6925.33963
   },
   {
      "name": "STARLINK-1767",
      "line1": "1 46345U 20062W   21092.67964396 -.00000571  00000-0 -19441-4 0  9994",
      "line2": "2 46345  53.0579 186.1520 0001320 131.7111 228.3991 15.06395416 32703",
      "bstar": -1.9441,
      "inc": 53.0579,
      "raan": 186.152,
      "ecc": 0.000132,
      "argp": 131.7111,
      "nu": 228.3991,
      "mmo": 15.06395416,
      "a": 6925.36261
   },
   {
      "name": "STARLINK-1546",
      "line1": "1 46346U 20062X   21092.88241769  .00008500  00000-0  21421-3 0  9998",
      "line2": "2 46346  53.0647 121.0793 0010168 320.1886  39.8371 15.40719803 33631",
      "bstar": 21.421,
      "inc": 53.0647,
      "raan": 121.0793,
      "ecc": 0.0010168,
      "argp": 320.1886,
      "nu": 39.8371,
      "mmo": 15.40719803,
      "a": 6822.12069
   },
   {
      "name": "STARLINK-1547",
      "line1": "1 46347U 20062Y   21092.83677529 -.00000009  00000-0  18311-4 0  9993",
      "line2": "2 46347  53.0516 140.4443 0001005 105.9057 254.2043 15.06383138 33340",
      "bstar": 1.8311,
      "inc": 53.0516,
      "raan": 140.4443,
      "ecc": 0.0001005,
      "argp": 105.9057,
      "nu": 254.2043,
      "mmo": 15.06383138,
      "a": 6925.40024
   },
   {
      "name": "STARLINK-1553",
      "line1": "1 46348U 20062Z   21092.53670270  .00000532  00000-0  64768-4 0  9994",
      "line2": "2 46348  53.0578 166.6703 0001541 135.9265 224.1844 14.99077923 32962",
      "bstar": 6.4768,
      "inc": 53.0578,
      "raan": 166.6703,
      "ecc": 0.0001541,
      "argp": 135.9265,
      "nu": 224.1844,
      "mmo": 14.99077923,
      "a": 6947.88096
   },
   {
      "name": "STARLINK-1575",
      "line1": "1 46349U 20062AA  21092.82476217  .00000853  00000-0  76190-4 0  9990",
      "line2": "2 46349  53.0572 140.4796 0001397  88.2332 271.8817 15.06394047 33354",
      "bstar": 7.619,
      "inc": 53.0572,
      "raan": 140.4796,
      "ecc": 0.0001397,
      "argp": 88.2332,
      "nu": 271.8817,
      "mmo": 15.06394047,
      "a": 6925.3668
   },
   {
      "name": "STARLINK-1617",
      "line1": "1 46350U 20062AB  21092.64277618  .00000400  00000-0  45753-4 0  9995",
      "line2": "2 46350  53.0580 186.3175 0001429 127.9456 232.1662 15.06400340 32709",
      "bstar": 4.5753,
      "inc": 53.058,
      "raan": 186.3175,
      "ecc": 0.0001429,
      "argp": 127.9456,
      "nu": 232.1662,
      "mmo": 15.0640034,
      "a": 6925.34752
   },
   {
      "name": "STARLINK-1646",
      "line1": "1 46351U 20062AC  21092.51561769 -.00000984  00000-0 -47181-4 0  9991",
      "line2": "2 46351  53.0569 166.8905 0001208 112.8321 247.2796 15.06390125 32962",
      "bstar": -4.7181,
      "inc": 53.0569,
      "raan": 166.8905,
      "ecc": 0.0001208,
      "argp": 112.8321,
      "nu": 247.2796,
      "mmo": 15.06390125,
      "a": 6925.37882
   },
   {
      "name": "STARLINK-1653",
      "line1": "1 46352U 20062AD  21092.89527365 -.00000639  00000-0 -24044-4 0  9997",
      "line2": "2 46352  53.0579 165.1857 0000957 109.5113 250.5979 15.06389793 33021",
      "bstar": -2.4044,
      "inc": 53.0579,
      "raan": 165.1857,
      "ecc": 9.57e-05,
      "argp": 109.5113,
      "nu": 250.5979,
      "mmo": 15.06389793,
      "a": 6925.37984
   },
   {
      "name": "STARLINK-1656",
      "line1": "1 46353U 20062AE  21092.76072748  .00000164  00000-0  29900-4 0  9991",
      "line2": "2 46353  53.0564 185.7897 0001566 140.5989 219.5114 15.06404427 32714",
      "bstar": 2.99,
      "inc": 53.0564,
      "raan": 185.7897,
      "ecc": 0.0001566,
      "argp": 140.5989,
      "nu": 219.5114,
      "mmo": 15.06404427,
      "a": 6925.33499
   },
   {
      "name": "STARLINK-1657",
      "line1": "1 46354U 20062AF  21092.68332399  .00001139  00000-0  95384-4 0  9996",
      "line2": "2 46354  53.0580 186.1445 0001758 135.6829 224.4301 15.06395146 32707",
      "bstar": 9.5384,
      "inc": 53.058,
      "raan": 186.1445,
      "ecc": 0.0001758,
      "argp": 135.6829,
      "nu": 224.4301,
      "mmo": 15.06395146,
      "a": 6925.36344
   },
   {
      "name": "STARLINK-1661",
      "line1": "1 46355U 20062AG  21092.72386856 -.00000904  00000-0 -41845-4 0  9993",
      "line2": "2 46355  53.0562 185.9552 0001244 124.9690 235.1415 15.06393556 32710",
      "bstar": -4.1845,
      "inc": 53.0562,
      "raan": 185.9552,
      "ecc": 0.0001244,
      "argp": 124.969,
      "nu": 235.1415,
      "mmo": 15.06393556,
      "a": 6925.36831
   },
   {
      "name": "STARLINK-1665",
      "line1": "1 46356U 20062AH  21092.66857383  .00000436  00000-0  48187-4 0  9999",
      "line2": "2 46356  53.0578 186.2061 0001307 123.3731 236.7383 15.06396984 32704",
      "bstar": 4.8187,
      "inc": 53.0578,
      "raan": 186.2061,
      "ecc": 0.0001307,
      "argp": 123.3731,
      "nu": 236.7383,
      "mmo": 15.06396984,
      "a": 6925.3578
   },
   {
      "name": "STARLINK-1666",
      "line1": "1 46357U 20062AJ  21092.66674237  .00001067  00000-0  90524-4 0  9998",
      "line2": "2 46357  53.0566 166.2137 0001159 118.0854 242.0252 15.06391166 32988",
      "bstar": 9.0524,
      "inc": 53.0566,
      "raan": 166.2137,
      "ecc": 0.0001159,
      "argp": 118.0854,
      "nu": 242.0252,
      "mmo": 15.06391166,
      "a": 6925.37563
   },
   {
      "name": "STARLINK-1690",
      "line1": "1 46358U 20062AK  21092.77915095  .00000919  00000-0  80554-4 0  9998",
      "line2": "2 46358  53.0573 185.7076 0001178 124.2612 235.8489 15.06401152 32728",
      "bstar": 8.0554,
      "inc": 53.0573,
      "raan": 185.7076,
      "ecc": 0.0001178,
      "argp": 124.2612,
      "nu": 235.8489,
      "mmo": 15.06401152,
      "a": 6925.34503
   }
]